{
  "norad_id": 63325,
  "name": "STARLINK-33612",
  "history": [
    {
      "epoch": "2026-03-28T21:50:42.232128Z",
      "apogee_km": 484.190519326663,
      "perigee_km": 481.7534534147035,
      "latitude_deg": -1.3115834487802119e-05,
      "longitude_deg": 128.58723796322394,
      "height_km": 482.71081657141644,
      "semi_major_axis_km": 6861.108986370683,
      "eccentricity": 0.0001776,
      "inclination_deg": 43.0005,
      "raan_deg": 282.5871,
      "arg_perigee_deg": 271.798,
      "mean_anomaly_deg": 88.2668,
      "mean_motion_rev_day": 15.27605752
    }
  ]
}