{"fetched_at":"2026-03-29T16:36:15Z","count":15609,"tles":[{"name":"STARLINK-33612","line1":"1 63325U 25057U   26087.91021102  .00036339  00000+0  13225-2 0  9995","line2":"2 63325  43.0005 282.5871 0001776 271.7980  88.2668 15.27605752 58710","category":"Starlink"}]}